[{"OBJECT_NAME":"STARLINK-1954","OBJECT_ID":"2021-009H","EPOCH":"2026-03-09T23:20:25.352160","MEAN_MOTION":15.30849174,"ECCENTRICITY":0.00046184,"INCLINATION":53.0574,"RA_OF_ASC_NODE":8.8654,"ARG_OF_PERICENTER":103.3293,"MEAN_ANOMALY":256.8222,"EPHEMERIS_TYPE":0,"CLASSIFICATION_TYPE":"U","NORAD_CAT_ID":47555,"ELEMENT_SET_NO":999,"REV_AT_EPOCH":28100,"BSTAR":0.0022371791,"MEAN_MOTION_DOT":0.00067883,"MEAN_MOTION_DDOT":0},{"OBJECT_NAME":"STARLINK-33751","OBJECT_ID":"2025-071V","EPOCH":"2026-03-09T11:14:05.601696","MEAN_MOTION":15.30178554,"ECCENTRICITY":0.00011972,"INCLINATION":53.1592,"RA_OF_ASC_NODE":141.0777,"ARG_OF_PERICENTER":85.3209,"MEAN_ANOMALY":274.7928,"EPHEMERIS_TYPE":0,"CLASSIFICATION_TYPE":"U","NORAD_CAT_ID":63512,"ELEMENT_SET_NO":999,"REV_AT_EPOCH":5271,"BSTAR":0.000930156,"MEAN_MOTION_DOT":0.00027272,"MEAN_MOTION_DDOT":0}]
